{"type": "FeatureCollection", "features": [ {"type": "Feature", "properties": {"norad_id": 30530, "name": "FENGYUN 1C DEB", "group": "fengyun-1c-debris", "lat": -80.72669974798904, "lon": 101.3092548849601, "alt_km": 847.4956745976997, "timestamp": "2025-12-24T11:33:00.293846+00:00", "meta": {"OBJECT_NAME": "FENGYUN 1C DEB", "OBJECT_ID": "1999-025AJU", "EPOCH": "2025-12-24T02:11:03.014304", "MEAN_MOTION": 14.3679952, "ECCENTRICITY": 0.0100436, "INCLINATION": 98.395, "RA_OF_ASC_NODE": 36.1819, "ARG_OF_PERICENTER": 103.2239, "MEAN_ANOMALY": 313.1888, "EPHEMERIS_TYPE": 0, "CLASSIFICATION_TYPE": "U", "NORAD_CAT_ID": 30530, "ELEMENT_SET_NO": 999, "REV_AT_EPOCH": 98948, "BSTAR": 0.00021868, "MEAN_MOTION_DOT": 6.41e-06, "MEAN_MOTION_DDOT": 0}, "tle": {"line1": "1 30530U 99025AJU 25358.09100711  .00000641  00000+0  21868-3 0  9996", "line2": "2 30530  98.3950  36.1819 0100436 103.2239 313.1888 14.36799520989485"}}, "geometry": {"type": "Point", "coordinates": [101.3092548849601, -80.72669974798904]}}, {"type": "Feature", "properties": {"norad_id": 30531, "name": "FENGYUN 1C DEB", "group": "fengyun-1c-debris", "lat": -53.50075930324611, "lon": -152.51641901998417, "alt_km": 704.6465671146416, "timestamp": "2025-12-24T11:33:00.293856+00:00", "meta": {"OBJECT_NAME": "FENGYUN 1C DEB", "OBJECT_ID": "1999-025AJV", "EPOCH": "2025-12-24T00:18:34.147008", "MEAN_MOTION": 14.62304615, "ECCENTRICITY": 0.0026433, "INCLINATION": 102.3098, "RA_OF_ASC_NODE": 189.6249, "ARG_OF_PERICENTER": 175.3111, "MEAN_ANOMALY": 184.8327, "EPHEMERIS_TYPE": 0, "CLASSIFICATION_TYPE": "U", "NORAD_CAT_ID": 30531, "ELEMENT_SET_NO": 999, "REV_AT_EPOCH": 97860, "BSTAR": 0.0043918, "MEAN_MOTION_DOT": 0.00022274, "MEAN_MOTION_DDOT": 0}, "tle": {"line1": "1 30531U 99025AJV 25358.01289522  .00022274  00000+0  43918-2 0  9992", "line2": "2 30531 102.3098 189.6249 0026433 175.3111 184.8327 14.62304615978608"}}, "geometry": {"type": "Point", "coordinates": [-152.51641901998417, -53.50075930324611]}}, {"type": "Feature", "properties": {"norad_id": 30532, "name": "FENGYUN 1C DEB", "group": "fengyun-1c-debris", "lat": 13.94574521565674, "lon": 41.23587184913959, "alt_km": 479.1013188840061, "timestamp": "2025-12-24T11:33:00.293867+00:00", "meta": {"OBJECT_NAME": "FENGYUN 1C DEB", "OBJECT_ID": "1999-025AJW", "EPOCH": "2025-12-23T19:49:31.539072", "MEAN_MOTION": 15.32972756, "ECCENTRICITY": 0.0020277, "INCLINATION": 96.9583, "RA_OF_ASC_NODE": 42.357, "ARG_OF_PERICENTER": 220.3508, "MEAN_ANOMALY": 139.6232, "EPHEMERIS_TYPE": 0, "CLASSIFICATION_TYPE": "U", "NORAD_CAT_ID": 30532, "ELEMENT_SET_NO": 999, "REV_AT_EPOCH": 97857, "BSTAR": 0.012899, "MEAN_MOTION_DOT": 0.00436753, "MEAN_MOTION_DDOT": 0}, "tle": {"line1": "1 30532U 99025AJW 25357.82605948  .00436753  00000+0  12899-1 0  9999", "line2": "2 30532  96.9583  42.3570 0020277 220.3508 139.6232 15.32972756978573"}}, "geometry": {"type": "Point", "coordinates": [41.23587184913959, 13.94574521565674]}}, {"type": "Feature", "properties": {"norad_id": 30533, "name": "FENGYUN 1C DEB", "group": "fengyun-1c-debris", "lat": -65.76620952999836, "lon": 148.15299605445773, "alt_km": 777.0583671588047, "timestamp": "2025-12-24T11:33:00.293877+00:00", "meta": {"OBJECT_NAME": "FENGYUN 1C DEB", "OBJECT_ID": "1999-025AJX", "EPOCH": "2025-12-23T21:33:41.594112", "MEAN_MOTION": 14.54083341, "ECCENTRICITY": 0.0081192, "INCLINATION": 98.8341, "RA_OF_ASC_NODE": 127.3257, "ARG_OF_PERICENTER": 115.7251, "MEAN_ANOMALY": 7.6397, "EPHEMERIS_TYPE": 0, "CLASSIFICATION_TYPE": "U", "NORAD_CAT_ID": 30533, "ELEMENT_SET_NO": 999, "REV_AT_EPOCH": 97983, "BSTAR": 0.0028646, "MEAN_MOTION_DOT": 0.00012607, "MEAN_MOTION_DDOT": 0}, "tle": {"line1": "1 30533U 99025AJX 25357.89839808  .00012607  00000+0  28646-2 0  9997", "line2": "2 30533  98.8341 127.3257 0081192 115.7251   7.6397 14.54083341979830"}}, "geometry": {"type": "Point", "coordinates": [148.15299605445773, -65.76620952999836]}}, {"type": "Feature", "properties": {"norad_id": 30539, "name": "FENGYUN 1C DEB", "group": "fengyun-1c-debris", "lat": 76.83446527980483, "lon": -62.275162337806535, "alt_km": 777.0235145686511, "timestamp": "2025-12-24T11:33:00.293887+00:00", "meta": {"OBJECT_NAME": "FENGYUN 1C DEB", "OBJECT_ID": "1999-025AKD", "EPOCH": "2025-12-23T10:25:35.444928", "MEAN_MOTION": 14.55461827, "ECCENTRICITY": 0.01152946, "INCLINATION": 98.8814, "RA_OF_ASC_NODE": 338.5619, "ARG_OF_PERICENTER": 242.9986, "MEAN_ANOMALY": 115.9401, "EPHEMERIS_TYPE": 0, "CLASSIFICATION_TYPE": "U", "NORAD_CAT_ID": 30539, "ELEMENT_SET_NO": 999, "REV_AT_EPOCH": 99521, "BSTAR": 0.00058087943, "MEAN_MOTION_DOT": 2.705e-05, "MEAN_MOTION_DDOT": 0}, "tle": {"line1": "1 30539U 99025AKD 25357.43443802  .00002705  00000+0  58088-3 0  9990", "line2": "2 30539  98.8814 338.5619 0115294 242.9986 115.9401 14.55461827995217"}}, "geometry": {"type": "Point", "coordinates": [-62.275162337806535, 76.83446527980483]}}, {"type": "Feature", "properties": {"norad_id": 30540, "name": "FENGYUN 1C DEB", "group": "fengyun-1c-debris", "lat": 33.48773578002396, "lon": 101.16682219415135, "alt_km": 745.6701062530556, "timestamp": "2025-12-24T11:33:00.293897+00:00", "meta": {"OBJECT_NAME": "FENGYUN 1C DEB", "OBJECT_ID": "1999-025AKE", "EPOCH": "2025-12-24T02:08:38.262336", "MEAN_MOTION": 14.32380355, "ECCENTRICITY": 0.0050591, "INCLINATION": 98.8785, "RA_OF_ASC_NODE": 106.7014, "ARG_OF_PERICENTER": 28.1094, "MEAN_ANOMALY": 146.0338, "EPHEMERIS_TYPE": 0, "CLASSIFICATION_TYPE": "U", "NORAD_CAT_ID": 30540, "ELEMENT_SET_NO": 999, "REV_AT_EPOCH": 97448, "BSTAR": 0.0018431, "MEAN_MOTION_DOT": 5.011e-05, "MEAN_MOTION_DDOT": 0}, "tle": {"line1": "1 30540U 99025AKE 25358.08933174  .00005011  00000+0  18431-2 0  9990", "line2": "2 30540  98.8785 106.7014 0050591  28.1094 146.0338 14.32380355974483"}}, "geometry": {"type": "Point", "coordinates": [101.16682219415135, 33.48773578002396]}}, {"type": "Feature", "properties": {"norad_id": 30541, "name": "FENGYUN 1C DEB", "group": "fengyun-1c-debris", "lat": 35.39569801120708, "lon": 38.63381678203032, "alt_km": 800.2719573261238, "timestamp": "2025-12-24T11:33:00.293908+00:00", "meta": {"OBJECT_NAME": "FENGYUN 1C DEB", "OBJECT_ID": "1999-025AKF", "EPOCH": "2025-12-23T23:34:14.627136", "MEAN_MOTION": 14.23104673, "ECCENTRICITY": 0.0017602, "INCLINATION": 98.6931, "RA_OF_ASC_NODE": 44.3821, "ARG_OF_PERICENTER": 53.7674, "MEAN_ANOMALY": 306.5128, "EPHEMERIS_TYPE": 0, "CLASSIFICATION_TYPE": "U", "NORAD_CAT_ID": 30541, "ELEMENT_SET_NO": 999, "REV_AT_EPOCH": 97487, "BSTAR": 0.0011357, "MEAN_MOTION_DOT": 2.524e-05, "MEAN_MOTION_DDOT": 0}, "tle": {"line1": "1 30541U 99025AKF 25357.98211374  .00002524  00000+0  11357-2 0  9996", "line2": "2 30541  98.6931  44.3821 0017602  53.7674 306.5128 14.23104673974872"}}, "geometry": {"type": "Point", "coordinates": [38.63381678203032, 35.39569801120708]}}, {"type": "Feature", "properties": {"norad_id": 30542, "name": "FENGYUN 1C DEB", "group": "fengyun-1c-debris", "lat": -55.616764543546445, "lon": 39.95790288033298, "alt_km": 857.0932022817879, "timestamp": "2025-12-24T11:33:00.293918+00:00", "meta": {"OBJECT_NAME": "FENGYUN 1C DEB", "OBJECT_ID": "1999-025AKG", "EPOCH": "2025-12-24T01:54:04.913856", "MEAN_MOTION": 14.06980064, "ECCENTRICITY": 0.0027125, "INCLINATION": 98.7859, "RA_OF_ASC_NODE": 26.5052, "ARG_OF_PERICENTER": 301.4901, "MEAN_ANOMALY": 126.7358, "EPHEMERIS_TYPE": 0, "CLASSIFICATION_TYPE": "U", "NORAD_CAT_ID": 30542, "ELEMENT_SET_NO": 999, "REV_AT_EPOCH": 97078, "BSTAR": 0.00013622, "MEAN_MOTION_DOT": 1.85e-06, "MEAN_MOTION_DDOT": 0}, "tle": {"line1": "1 30542U 99025AKG 25358.07922354  .00000185  00000+0  13622-3 0  9994", "line2": "2 30542  98.7859  26.5052 0027125 301.4901 126.7358 14.06980064970788"}}, "geometry": {"type": "Point", "coordinates": [39.95790288033298, -55.616764543546445]}}, {"type": "Feature", "properties": {"norad_id": 30543, "name": "FENGYUN 1C DEB", "group": "fengyun-1c-debris", "lat": -60.941552262913106, "lon": 171.46335277928088, "alt_km": 912.961976785672, "timestamp": "2025-12-24T11:33:00.293928+00:00", "meta": {"OBJECT_NAME": "FENGYUN 1C DEB", "OBJECT_ID": "1999-025AKH", "EPOCH": "2025-12-23T07:07:10.850304", "MEAN_MOTION": 14.03750375, "ECCENTRICITY": 0.00721697, "INCLINATION": 98.8329, "RA_OF_ASC_NODE": 6.5634, "ARG_OF_PERICENTER": 4.3282, "MEAN_ANOMALY": 15.4756, "EPHEMERIS_TYPE": 0, "CLASSIFICATION_TYPE": "U", "NORAD_CAT_ID": 30543, "ELEMENT_SET_NO": 999, "REV_AT_EPOCH": 96653, "BSTAR": 0.00014027447, "MEAN_MOTION_DOT": 1.83e-06, "MEAN_MOTION_DDOT": 0}, "tle": {"line1": "1 30543U 99025AKH 25357.29665336  .00000183  00000+0  14027-3 0  9990", "line2": "2 30543  98.8329   6.5634 0072169   4.3282  15.4756 14.03750375966536"}}, "geometry": {"type": "Point", "coordinates": [171.46335277928088, -60.941552262913106]}}, {"type": "Feature", "properties": {"norad_id": 30545, "name": "FENGYUN 1C DEB", "group": "fengyun-1c-debris", "lat": -33.952853978385356, "lon": -144.81561639988985, "alt_km": 844.3013430041383, "timestamp": "2025-12-24T11:33:00.293978+00:00", "meta": {"OBJECT_NAME": "FENGYUN 1C DEB", "OBJECT_ID": "1999-025AKK", "EPOCH": "2025-12-16T01:55:01.765920", "MEAN_MOTION": 13.20785031, "ECCENTRICITY": 0.04726799, "INCLINATION": 98.9986, "RA_OF_ASC_NODE": 201.8152, "ARG_OF_PERICENTER": 2.8282, "MEAN_ANOMALY": 357.5348, "EPHEMERIS_TYPE": 0, "CLASSIFICATION_TYPE": "U", "NORAD_CAT_ID": 30545, "ELEMENT_SET_NO": 999, "REV_AT_EPOCH": 90974, "BSTAR": 0.00057440201, "MEAN_MOTION_DOT": 3.84e-06, "MEAN_MOTION_DDOT": 0}, "tle": {"line1": "1 30545U 99025AKK 25350.07988155  .00000384  00000+0  57440-3 0  9997", "line2": "2 30545  98.9986 201.8152 0472679   2.8282 357.5348 13.20785031909748"}}, "geometry": {"type": "Point", "coordinates": [-144.81561639988985, -33.952853978385356]}}]}